ONEWEB-0429             
1 50500U 21132AH  26095.19372730  .00000089  00000+0  19378-3 0  9990
2 50500  87.9231 349.9713 0001896  79.4090 280.7256 13.18685215211960
ONEWEB-0430             
1 50501U 21132AJ  26095.25806179  .00000090  00000+0  19671-3 0  9995
2 50501  87.9231 349.9570 0001896  74.0206 286.1135 13.18686930212010
ONEWEB-0432             
1 50502U 21132AK  26095.21619775  .00000105  00000+0  23434-3 0  9995
2 50502  87.9235 349.9347 0001439  55.9337 304.1932 13.18647201211960
ONEWEB-0440             
1 50503U 21132AL  26095.20197510  .00000145  00000+0  33624-3 0  9999
2 50503  87.9236 349.9583 0001975  90.1148 270.0210 13.18685270211957
ONEWEB-0450             
1 50504U 21132AM  26095.19551520  .00000116  00000+0  26169-3 0  9997
2 50504  87.9228 349.9722 0002039  78.1449 281.9912 13.18685532211980
ONEWEB-0410             
1 51622U 22012A   26095.16666790 -.00000039  00000+0 -13414-3 0  9995
2 51622  87.9195  20.3519 0000501  98.1727 261.9461 13.17651845204081
ONEWEB-0411             
1 51623U 22012B   26094.86252803  .00000705  00000+0  19830-2 0  9993
2 51623  87.8824  50.8533 0002284  68.4808 291.6562 13.10374193199686
ONEWEB-0415             
1 51624U 22012C   26095.16461736  .00000323  00000+0  88934-3 0  9993
2 51624  87.8825  50.7955 0001967  73.3088 286.8255 13.10372793199721
ONEWEB-0416             
1 51625U 22012D   26094.87082641  .00000519  00000+0  14514-2 0  9994
2 51625  87.8813  50.8744 0001841  66.9615 293.1707 13.10371916199720
ONEWEB-0422             
1 51626U 22012E   26095.25274384 -.00000204  00000+0 -55832-3 0  9997
2 51626  87.9191  20.3378 0002414  86.2968 273.8439 13.17649405204204
ONEWEB-0423             
1 51627U 22012F   26095.17006085  .00000066  00000+0  13757-3 0  9994
2 51627  87.9192  20.3630 0001841  81.4759 278.6581 13.17650326204086
ONEWEB-0425             
1 51628U 22012G   26095.26256162  .00000264  00000+0  72118-3 0  9994
2 51628  87.8824  50.7759 0001522  86.4239 273.7062 13.10371471199774
ONEWEB-0428             
1 51629U 22012H   26095.16629225  .00000585  00000+0  16387-2 0  9999
2 51629  87.8819  50.8058 0001917  81.7763 278.3582 13.10374951199729
ONEWEB-0431             
1 51630U 22012J   26095.28897417 -.00000572  00000+0 -16741-2 0  9996
2 51630  87.8830  50.7692 0002394  70.4962 289.6424 13.10373022199798
ONEWEB-0434             
1 51631U 22012K   26095.26601400  .00000059  00000+0  13144-3 0  9993
2 51631  87.8816  50.8003 0001326  95.2550 264.8728 13.10370947199775
ONEWEB-0435             
1 51632U 22012L   26095.27418298 -.00000348  00000+0 -10344-2 0  9997
2 51632  87.8816  50.7887 0002115  83.5096 276.6272 13.10373966199765
