[{"OBJECT_NAME":"ONEWEB-0429","OBJECT_ID":"2021-132AH","EPOCH":"2026-04-05T04:38:58.038720","MEAN_MOTION":13.18685215,"ECCENTRICITY":0.0001896,"INCLINATION":87.9231,"RA_OF_ASC_NODE":349.9713,"ARG_OF_PERICENTER":79.409,"MEAN_ANOMALY":280.7256,"EPHEMERIS_TYPE":0,"CLASSIFICATION_TYPE":"U","NORAD_CAT_ID":50500,"ELEMENT_SET_NO":999,"REV_AT_EPOCH":21196,"BSTAR":0.00019378,"MEAN_MOTION_DOT":8.9e-07,"MEAN_MOTION_DDOT":0.0},{"OBJECT_NAME":"ONEWEB-0430","OBJECT_ID":"2021-132AJ","EPOCH":"2026-04-05T06:11:36.538656","MEAN_MOTION":13.1868693,"ECCENTRICITY":0.0001896,"INCLINATION":87.9231,"RA_OF_ASC_NODE":349.957,"ARG_OF_PERICENTER":74.0206,"MEAN_ANOMALY":286.1135,"EPHEMERIS_TYPE":0,"CLASSIFICATION_TYPE":"U","NORAD_CAT_ID":50501,"ELEMENT_SET_NO":999,"REV_AT_EPOCH":21201,"BSTAR":0.00019671,"MEAN_MOTION_DOT":9e-07,"MEAN_MOTION_DDOT":0.0},{"OBJECT_NAME":"ONEWEB-0432","OBJECT_ID":"2021-132AK","EPOCH":"2026-04-05T05:11:19.485600","MEAN_MOTION":13.18647201,"ECCENTRICITY":0.0001439,"INCLINATION":87.9235,"RA_OF_ASC_NODE":349.9347,"ARG_OF_PERICENTER":55.9337,"MEAN_ANOMALY":304.1932,"EPHEMERIS_TYPE":0,"CLASSIFICATION_TYPE":"U","NORAD_CAT_ID":50502,"ELEMENT_SET_NO":999,"REV_AT_EPOCH":21196,"BSTAR":0.00023434,"MEAN_MOTION_DOT":1.05e-06,"MEAN_MOTION_DDOT":0.0},{"OBJECT_NAME":"ONEWEB-0440","OBJECT_ID":"2021-132AL","EPOCH":"2026-04-05T04:50:50.648640","MEAN_MOTION":13.1868527,"ECCENTRICITY":0.0001975,"INCLINATION":87.9236,"RA_OF_ASC_NODE":349.9583,"ARG_OF_PERICENTER":90.1148,"MEAN_ANOMALY":270.021,"EPHEMERIS_TYPE":0,"CLASSIFICATION_TYPE":"U","NORAD_CAT_ID":50503,"ELEMENT_SET_NO":999,"REV_AT_EPOCH":21195,"BSTAR":0.00033623999999999997,"MEAN_MOTION_DOT":1.45e-06,"MEAN_MOTION_DDOT":0.0},{"OBJECT_NAME":"ONEWEB-0450","OBJECT_ID":"2021-132AM","EPOCH":"2026-04-05T04:41:32.513280","MEAN_MOTION":13.18685532,"ECCENTRICITY":0.0002039,"INCLINATION":87.9228,"RA_OF_ASC_NODE":349.9722,"ARG_OF_PERICENTER":78.1449,"MEAN_ANOMALY":281.9912,"EPHEMERIS_TYPE":0,"CLASSIFICATION_TYPE":"U","NORAD_CAT_ID":50504,"ELEMENT_SET_NO":999,"REV_AT_EPOCH":21198,"BSTAR":0.00026168999999999997,"MEAN_MOTION_DOT":1.16e-06,"MEAN_MOTION_DDOT":0.0},{"OBJECT_NAME":"ONEWEB-0410","OBJECT_ID":"2022-012A","EPOCH":"2026-04-05T04:00:00.106560","MEAN_MOTION":13.17651845,"ECCENTRICITY":5.01e-05,"INCLINATION":87.9195,"RA_OF_ASC_NODE":20.3519,"ARG_OF_PERICENTER":98.1727,"MEAN_ANOMALY":261.9461,"EPHEMERIS_TYPE":0,"CLASSIFICATION_TYPE":"U","NORAD_CAT_ID":51622,"ELEMENT_SET_NO":999,"REV_AT_EPOCH":20408,"BSTAR":-0.00013414,"MEAN_MOTION_DOT":-3.9e-07,"MEAN_MOTION_DDOT":0.0},{"OBJECT_NAME":"ONEWEB-0411","OBJECT_ID":"2022-012B","EPOCH":"2026-04-04T20:42:02.421792","MEAN_MOTION":13.10374193,"ECCENTRICITY":0.0002284,"INCLINATION":87.8824,"RA_OF_ASC_NODE":50.8533,"ARG_OF_PERICENTER":68.4808,"MEAN_ANOMALY":291.6562,"EPHEMERIS_TYPE":0,"CLASSIFICATION_TYPE":"U","NORAD_CAT_ID":51623,"ELEMENT_SET_NO":999,"REV_AT_EPOCH":19968,"BSTAR":0.001983,"MEAN_MOTION_DOT":7.05e-06,"MEAN_MOTION_DDOT":0.0},{"OBJECT_NAME":"ONEWEB-0415","OBJECT_ID":"2022-012C","EPOCH":"2026-04-05T03:57:02.939904","MEAN_MOTION":13.10372793,"ECCENTRICITY":0.0001967,"INCLINATION":87.8825,"RA_OF_ASC_NODE":50.7955,"ARG_OF_PERICENTER":73.3088,"MEAN_ANOMALY":286.8255,"EPHEMERIS_TYPE":0,"CLASSIFICATION_TYPE":"U","NORAD_CAT_ID":51624,"ELEMENT_SET_NO":999,"REV_AT_EPOCH":19972,"BSTAR":0.0008893400000000001,"MEAN_MOTION_DOT":3.23e-06,"MEAN_MOTION_DDOT":0.0},{"OBJECT_NAME":"ONEWEB-0416","OBJECT_ID":"2022-012D","EPOCH":"2026-04-04T20:53:59.401824","MEAN_MOTION":13.10371916,"ECCENTRICITY":0.0001841,"INCLINATION":87.8813,"RA_OF_ASC_NODE":50.8744,"ARG_OF_PERICENTER":66.9615,"MEAN_ANOMALY":293.1707,"EPHEMERIS_TYPE":0,"CLASSIFICATION_TYPE":"U","NORAD_CAT_ID":51625,"ELEMENT_SET_NO":999,"REV_AT_EPOCH":19972,"BSTAR":0.0014514,"MEAN_MOTION_DOT":5.19e-06,"MEAN_MOTION_DDOT":0.0},{"OBJECT_NAME":"ONEWEB-0422","OBJECT_ID":"2022-012E","EPOCH":"2026-04-05T06:03:57.067776","MEAN_MOTION":13.17649405,"ECCENTRICITY":0.0002414,"INCLINATION":87.9191,"RA_OF_ASC_NODE":20.3378,"ARG_OF_PERICENTER":86.2968,"MEAN_ANOMALY":273.8439,"EPHEMERIS_TYPE":0,"CLASSIFICATION_TYPE":"U","NORAD_CAT_ID":51626,"ELEMENT_SET_NO":999,"REV_AT_EPOCH":20420,"BSTAR":-0.0005583200000000001,"MEAN_MOTION_DOT":-2.04e-06,"MEAN_MOTION_DDOT":0.0},{"OBJECT_NAME":"ONEWEB-0423","OBJECT_ID":"2022-012F","EPOCH":"2026-04-05T04:04:53.257440","MEAN_MOTION":13.17650326,"ECCENTRICITY":0.0001841,"INCLINATION":87.9192,"RA_OF_ASC_NODE":20.363,"ARG_OF_PERICENTER":81.4759,"MEAN_ANOMALY":278.6581,"EPHEMERIS_TYPE":0,"CLASSIFICATION_TYPE":"U","NORAD_CAT_ID":51627,"ELEMENT_SET_NO":999,"REV_AT_EPOCH":20408,"BSTAR":0.00013757,"MEAN_MOTION_DOT":6.6e-07,"MEAN_MOTION_DDOT":0.0},{"OBJECT_NAME":"ONEWEB-0425","OBJECT_ID":"2022-012G","EPOCH":"2026-04-05T06:18:05.323968","MEAN_MOTION":13.10371471,"ECCENTRICITY":0.0001522,"INCLINATION":87.8824,"RA_OF_ASC_NODE":50.7759,"ARG_OF_PERICENTER":86.4239,"MEAN_ANOMALY":273.7062,"EPHEMERIS_TYPE":0,"CLASSIFICATION_TYPE":"U","NORAD_CAT_ID":51628,"ELEMENT_SET_NO":999,"REV_AT_EPOCH":19977,"BSTAR":0.0007211800000000001,"MEAN_MOTION_DOT":2.64e-06,"MEAN_MOTION_DDOT":0.0},{"OBJECT_NAME":"ONEWEB-0428","OBJECT_ID":"2022-012H","EPOCH":"2026-04-05T03:59:27.650400","MEAN_MOTION":13.10374951,"ECCENTRICITY":0.0001917,"INCLINATION":87.8819,"RA_OF_ASC_NODE":50.8058,"ARG_OF_PERICENTER":81.7763,"MEAN_ANOMALY":278.3582,"EPHEMERIS_TYPE":0,"CLASSIFICATION_TYPE":"U","NORAD_CAT_ID":51629,"ELEMENT_SET_NO":999,"REV_AT_EPOCH":19972,"BSTAR":0.0016386999999999999,"MEAN_MOTION_DOT":5.85e-06,"MEAN_MOTION_DDOT":0.0},{"OBJECT_NAME":"ONEWEB-0431","OBJECT_ID":"2022-012J","EPOCH":"2026-04-05T06:56:07.368288","MEAN_MOTION":13.10373022,"ECCENTRICITY":0.0002394,"INCLINATION":87.883,"RA_OF_ASC_NODE":50.7692,"ARG_OF_PERICENTER":70.4962,"MEAN_ANOMALY":289.6424,"EPHEMERIS_TYPE":0,"CLASSIFICATION_TYPE":"U","NORAD_CAT_ID":51630,"ELEMENT_SET_NO":999,"REV_AT_EPOCH":19979,"BSTAR":-0.0016741,"MEAN_MOTION_DOT":-5.72e-06,"MEAN_MOTION_DDOT":0.0},{"OBJECT_NAME":"ONEWEB-0434","OBJECT_ID":"2022-012K","EPOCH":"2026-04-05T06:23:03.609600","MEAN_MOTION":13.10370947,"ECCENTRICITY":0.0001326,"INCLINATION":87.8816,"RA_OF_ASC_NODE":50.8003,"ARG_OF_PERICENTER":95.255,"MEAN_ANOMALY":264.8728,"EPHEMERIS_TYPE":0,"CLASSIFICATION_TYPE":"U","NORAD_CAT_ID":51631,"ELEMENT_SET_NO":999,"REV_AT_EPOCH":19977,"BSTAR":0.00013144,"MEAN_MOTION_DOT":5.9e-07,"MEAN_MOTION_DDOT":0.0},{"OBJECT_NAME":"ONEWEB-0435","OBJECT_ID":"2022-012L","EPOCH":"2026-04-05T06:34:49.409472","MEAN_MOTION":13.10373966,"ECCENTRICITY":0.0002115,"INCLINATION":87.8816,"RA_OF_ASC_NODE":50.7887,"ARG_OF_PERICENTER":83.5096,"MEAN_ANOMALY":276.6272,"EPHEMERIS_TYPE":0,"CLASSIFICATION_TYPE":"U","NORAD_CAT_ID":51632,"ELEMENT_SET_NO":999,"REV_AT_EPOCH":19976,"BSTAR":-0.0010344,"MEAN_MOTION_DOT":-3.48e-06,"MEAN_MOTION_DDOT":0.0}]